{
  "type": "FeatureCollection",
  "features": [
    {
      "type": "Feature",
      "properties": {
        "norad_id": 66909,
        "name": "SILVERSAT",
        "group": "last-30-days",
        "lat": 47.205229078031685,
        "lon": -71.87464295626796,
        "alt_km": 407.95483710173994,
        "timestamp": "2025-12-07T18:50:15.515760+00:00",
        "meta_object_name": "SILVERSAT",
        "meta_object_id": "1998-067XV",
        "meta_epoch": "2025-12-06T23:48:09.042912",
        "meta_mean_motion": 15.50609226,
        "meta_eccentricity": 0.00052543,
        "meta_inclination": 51.6296,
        "meta_ra_of_asc_node": 170.9073,
        "meta_arg_of_pericenter": 195.3758,
        "meta_mean_anomaly": 164.7072,
        "meta_ephemeris_type": 0,
        "meta_classification_type": "U",
        "meta_norad_cat_id": 66909,
        "meta_element_set_no": 999,
        "meta_rev_at_epoch": 72,
        "meta_bstar": 0.0013867176,
        "meta_mean_motion_dot": 0.00081279,
        "meta_mean_motion_ddot": 0,
        "tle_line1": "1 66909U 98067XV  25340.99177133  .00081279  00000+0  13867-2 0  9997",
        "tle_line2": "2 66909  51.6296 170.9073 0005254 195.3758 164.7072 15.50609226   724"
      },
      "geometry": {
        "type": "Point",
        "coordinates": [
          -71.87464295626796,
          47.205229078031685
        ]
      }
    },
    {
      "type": "Feature",
      "properties": {
        "norad_id": 66910,
        "name": "1998-067XW",
        "group": "last-30-days",
        "lat": 44.88889910927095,
        "lon": -65.1541159575062,
        "alt_km": 406.2448442400064,
        "timestamp": "2025-12-07T18:50:15.515772+00:00",
        "meta_object_name": "1998-067XW",
        "meta_object_id": "1998-067XW",
        "meta_epoch": "2025-12-07T05:58:08.485248",
        "meta_mean_motion": 15.50882023,
        "meta_eccentricity": 0.0006057,
        "meta_inclination": 51.6294,
        "meta_ra_of_asc_node": 169.6237,
        "meta_arg_of_pericenter": 181.9065,
        "meta_mean_anomaly": 178.1903,
        "meta_ephemeris_type": 0,
        "meta_classification_type": "U",
        "meta_norad_cat_id": 66910,
        "meta_element_set_no": 999,
        "meta_rev_at_epoch": 76,
        "meta_bstar": 0.0012693792,
        "meta_mean_motion_dot": 0.00075043,
        "meta_mean_motion_ddot": 0,
        "tle_line1": "1 66910U 98067XW  25341.24870932  .00075043  00000+0  12694-2 0  9994",
        "tle_line2": "2 66910  51.6294 169.6237 0006057 181.9065 178.1903 15.50882023   769"
      },
      "geometry": {
        "type": "Point",
        "coordinates": [
          -65.1541159575062,
          44.88889910927095
        ]
      }
    },
    {
      "type": "Feature",
      "properties": {
        "norad_id": 66911,
        "name": "1998-067XX",
        "group": "last-30-days",
        "lat": 44.46210192350879,
        "lon": -64.07988539446627,
        "alt_km": 406.0159101976715,
        "timestamp": "2025-12-07T18:50:15.515782+00:00",
        "meta_object_name": "1998-067XX",
        "meta_object_id": "1998-067XX",
        "meta_epoch": "2025-12-07T05:57:57.962592",
        "meta_mean_motion": 15.50976339,
        "meta_eccentricity": 0.000596,
        "meta_inclination": 51.6294,
        "meta_ra_of_asc_node": 169.6228,
        "meta_arg_of_pericenter": 182.6647,
        "meta_mean_anomaly": 177.4311,
        "meta_ephemeris_type": 0,
        "meta_classification_type": "U",
        "meta_norad_cat_id": 66911,
        "meta_element_set_no": 999,
        "meta_rev_at_epoch": 75,
        "meta_bstar": 0.0014605419,
        "meta_mean_motion_dot": 0.00086834,
        "meta_mean_motion_ddot": 0,
        "tle_line1": "1 66911U 98067XX  25341.24858753  .00086834  00000+0  14605-2 0  9996",
        "tle_line2": "2 66911  51.6294 169.6228 0005960 182.6647 177.4311 15.50976339   754"
      },
      "geometry": {
        "type": "Point",
        "coordinates": [
          -64.07988539446627,
          44.46210192350879
        ]
      }
    },
    {
      "type": "Feature",
      "properties": {
        "norad_id": 66912,
        "name": "1998-067XY",
        "group": "last-30-days",
        "lat": 48.214260134544645,
        "lon": -75.47158009798493,
        "alt_km": 408.6403747367449,
        "timestamp": "2025-12-07T18:50:15.515792+00:00",
        "meta_object_name": "1998-067XY",
        "meta_object_id": "1998-067XY",
        "meta_epoch": "2025-12-06T19:10:11.930016",
        "meta_mean_motion": 15.50363521,
        "meta_eccentricity": 0.00052356,
        "meta_inclination": 51.6299,
        "meta_ra_of_asc_node": 171.8684,
        "meta_arg_of_pericenter": 194.0341,
        "meta_mean_anomaly": 166.0503,
        "meta_ephemeris_type": 0,
        "meta_classification_type": "U",
        "meta_norad_cat_id": 66912,
        "meta_element_set_no": 999,
        "meta_rev_at_epoch": 68,
        "meta_bstar": 0.0011553511,
        "meta_mean_motion_dot": 0.00066928,
        "meta_mean_motion_ddot": 0,
        "tle_line1": "1 66912U 98067XY  25340.79874919  .00066928  00000+0  11554-2 0  9990",
        "tle_line2": "2 66912  51.6299 171.8684 0005235 194.0341 166.0503 15.50363521   686"
      },
      "geometry": {
        "type": "Point",
        "coordinates": [
          -75.47158009798493,
          48.214260134544645
        ]
      }
    },
    {
      "type": "Feature",
      "properties": {
        "norad_id": 66913,
        "name": "2025-284A",
        "group": "last-30-days",
        "lat": -14.60875720166785,
        "lon": 133.5166894971982,
        "alt_km": 511.8423090725055,
        "timestamp": "2025-12-07T18:50:15.515802+00:00",
        "meta_object_name": "2025-284A",
        "meta_object_id": "2025-284A",
        "meta_epoch": "2025-12-05T19:30:25.528608",
        "meta_mean_motion": 15.20033669,
        "meta_eccentricity": 0.00128266,
        "meta_inclination": 80.4023,
        "meta_ra_of_asc_node": 138.5488,
        "meta_arg_of_pericenter": 252.3263,
        "meta_mean_anomaly": 107.6565,
        "meta_ephemeris_type": 0,
        "meta_classification_type": "U",
        "meta_norad_cat_id": 66913,
        "meta_element_set_no": 999,
        "meta_rev_at_epoch": 7,
        "meta_bstar": 0.00014555981,
        "meta_mean_motion_dot": 3.163e-05,
        "meta_mean_motion_ddot": 0,
        "tle_line1": "1 66913U 25284A   25339.81279547  .00003163  00000+0  14556-3 0  9997",
        "tle_line2": "2 66913  80.4023 138.5488 0012826 252.3263 107.6565 15.20033669    75"
      },
      "geometry": {
        "type": "Point",
        "coordinates": [
          133.5166894971982,
          -14.60875720166785
        ]
      }
    },
    {
      "type": "Feature",
      "properties": {
        "norad_id": 66915,
        "name": "HULIANWANG DIGUI 14A",
        "group": "last-30-days",
        "lat": -37.8595076383225,
        "lon": 96.69136116922802,
        "alt_km": 875.7196310610116,
        "timestamp": "2025-12-07T18:50:15.515812+00:00",
        "meta_object_name": "HULIANWANG DIGUI 14A",
        "meta_object_id": "2025-285A",
        "meta_epoch": "2025-12-06T08:58:45.410016",
        "meta_mean_motion": 14.06225102,
        "meta_eccentricity": 0.00087698,
        "meta_inclination": 49.9887,
        "meta_ra_of_asc_node": 143.2276,
        "meta_arg_of_pericenter": 217.1051,
        "meta_mean_anomaly": 142.9249,
        "meta_ephemeris_type": 0,
        "meta_classification_type": "U",
        "meta_norad_cat_id": 66915,
        "meta_element_set_no": 999,
        "meta_rev_at_epoch": 1,
        "meta_bstar": 1.8511052e-05,
        "meta_mean_motion_dot": -1.22e-06,
        "meta_mean_motion_ddot": 0,
        "tle_line1": "1 66915U 25285A   25340.37413669 -.00000122  00000+0  18511-4 0  9997",
        "tle_line2": "2 66915  49.9887 143.2276 0008769 217.1051 142.9249 14.06225102    11"
      },
      "geometry": {
        "type": "Point",
        "coordinates": [
          96.69136116922802,
          -37.8595076383225
        ]
      }
    },
    {
      "type": "Feature",
      "properties": {
        "norad_id": 66916,
        "name": "HULIANWANG DIGUI 14B",
        "group": "last-30-days",
        "lat": -38.737482228625105,
        "lon": 95.19121266845939,
        "alt_km": 872.6458999995075,
        "timestamp": "2025-12-07T18:50:15.515822+00:00",
        "meta_object_name": "HULIANWANG DIGUI 14B",
        "meta_object_id": "2025-285B",
        "meta_epoch": "2025-12-06T12:23:28.538592",
        "meta_mean_motion": 14.0595389,
        "meta_eccentricity": 0.0008093,
        "meta_inclination": 50.0119,
        "meta_ra_of_asc_node": 142.6984,
        "meta_arg_of_pericenter": 262.9615,
        "meta_mean_anomaly": 97.037,
        "meta_ephemeris_type": 0,
        "meta_classification_type": "U",
        "meta_norad_cat_id": 66916,
        "meta_element_set_no": 999,
        "meta_rev_at_epoch": 3,
        "meta_bstar": 1.7671e-05,
        "meta_mean_motion_dot": -1.23e-06,
        "meta_mean_motion_ddot": 0,
        "tle_line1": "1 66916U 25285B   25340.51630253 -.00000123  00000+0  17671-4 0  9991",
        "tle_line2": "2 66916  50.0119 142.6984 0008093 262.9615  97.0370 14.05953890    34"
      },
      "geometry": {
        "type": "Point",
        "coordinates": [
          95.19121266845939,
          -38.737482228625105
        ]
      }
    }
  ]
}